OCO 2                   
1 40059U 14035A   26091.45142482  .00000641  00000+0  15216-3 0  9997
2 40059  98.1961  33.9389 0001539  91.4905 268.6470 14.57120882624873
BRITE-PL2 (HEWELIUSZ)   
1 40119U 14049B   26091.30724068  .00002536  00000+0  24123-3 0  9991
2 40119  97.8999 202.7719 0014048  10.4516 349.6993 14.94295002629961
MMS 1                   
1 40482U 15011A   26091.58334490 -.00001233  00000+0  00000+0 0  9998
2 40482  71.0594 349.8564 8382966 165.8403  44.5191  0.28276778  1309
MMS 2                   
1 40483U 15011B   26091.58334490 -.00001233  00000+0  00000+0 0  9999
2 40483  71.0595 349.8585 8383714 165.8463  44.5036  0.28276731  1309
MMS 3                   
1 40484U 15011C   26091.58334490 -.00001233  00000+0  00000+0 0  9990
2 40484  71.0618 349.8633 8382806 165.8407  44.5130  0.28277191  1305
MMS 4                   
1 40485U 15011D   26091.58334490 -.00001233  00000+0  00000+0 0  9991
2 40485  71.0597 349.8584 8382509 165.8481  44.4952  0.28276586  1307
ASTROSAT                
1 40930U 15052A   26091.26154236  .00002103  00000+0  17476-3 0  9999
2 40930   5.9981 349.0141 0007826  12.0231 348.0083 14.82358949568394
DAMPE                   
1 41173U 15078A   26091.48670304  .00002167  00000+0  75819-4 0  9996
2 41173  97.4576  96.5817 0012038 357.1674   2.9496 15.30582677572816
PISAT                   
1 41784U 16059B   26091.44239399  .00001269  00000+0  22379-3 0  9999
2 41784  97.8193  95.1997 0030596  90.7455 269.7257 14.68831246508471
HXMT (HUIYAN)           
1 42758U 17034A   26091.55018100  .00005410  00000+0  27148-3 0  9993
2 42758  43.0134 249.5488 0031340  16.9676 343.2214 15.17751934486010
FLYING LAPTOP           
1 42831U 17042G   26091.51663631  .00002723  00000+0  21880-3 0  9996
2 42831  97.4342 250.1874 0019905  24.8016 335.4161 15.00669976474952
ZHANGHENG 1-01 (CSES-1) 
1 43194U 18015C   26091.55333042  .00010456  00000+0  47434-3 0  9999
2 43194  97.6787 255.7144 0018544 158.4592 201.7427 15.20858614452993
SALSAT                  
1 46495U 20068K   26091.45639545  .00008705  00000+0  31519-3 0  9994
2 46495  97.8857  89.9191 0009157 201.5873 158.4980 15.28628102303634
IXPE                    
1 49954U 21121A   26091.50001156  .00014746  00000+0  83544-3 0  9992
2 49954   0.2285 177.0041 0007067   2.2085 273.9534 15.09513462  5764
