[{"OBJECT_NAME":"OCO 2","OBJECT_ID":"2014-035A","EPOCH":"2026-04-01T10:50:03.104448","MEAN_MOTION":14.57120882,"ECCENTRICITY":0.0001539,"INCLINATION":98.1961,"RA_OF_ASC_NODE":33.9389,"ARG_OF_PERICENTER":91.4905,"MEAN_ANOMALY":268.647,"EPHEMERIS_TYPE":0,"CLASSIFICATION_TYPE":"U","NORAD_CAT_ID":40059,"ELEMENT_SET_NO":999,"REV_AT_EPOCH":62487,"BSTAR":0.00015216,"MEAN_MOTION_DOT":6.41e-6,"MEAN_MOTION_DDOT":0},{"OBJECT_NAME":"BRITE-PL2 (HEWELIUSZ)","OBJECT_ID":"2014-049B","EPOCH":"2026-04-01T07:22:25.594752","MEAN_MOTION":14.94295002,"ECCENTRICITY":0.0014048,"INCLINATION":97.8999,"RA_OF_ASC_NODE":202.7719,"ARG_OF_PERICENTER":10.4516,"MEAN_ANOMALY":349.6993,"EPHEMERIS_TYPE":0,"CLASSIFICATION_TYPE":"U","NORAD_CAT_ID":40119,"ELEMENT_SET_NO":999,"REV_AT_EPOCH":62996,"BSTAR":0.00024123,"MEAN_MOTION_DOT":2.536e-5,"MEAN_MOTION_DDOT":0},{"OBJECT_NAME":"MMS 1","OBJECT_ID":"2015-011A","EPOCH":"2026-04-01T14:00:00.999360","MEAN_MOTION":0.28276778,"ECCENTRICITY":0.8382966,"INCLINATION":71.0594,"RA_OF_ASC_NODE":349.8564,"ARG_OF_PERICENTER":165.8403,"MEAN_ANOMALY":44.5191,"EPHEMERIS_TYPE":0,"CLASSIFICATION_TYPE":"U","NORAD_CAT_ID":40482,"ELEMENT_SET_NO":999,"REV_AT_EPOCH":130,"BSTAR":0,"MEAN_MOTION_DOT":-1.233e-5,"MEAN_MOTION_DDOT":0},{"OBJECT_NAME":"MMS 2","OBJECT_ID":"2015-011B","EPOCH":"2026-04-01T14:00:00.999360","MEAN_MOTION":0.28276731,"ECCENTRICITY":0.8383714,"INCLINATION":71.0595,"RA_OF_ASC_NODE":349.8585,"ARG_OF_PERICENTER":165.8463,"MEAN_ANOMALY":44.5036,"EPHEMERIS_TYPE":0,"CLASSIFICATION_TYPE":"U","NORAD_CAT_ID":40483,"ELEMENT_SET_NO":999,"REV_AT_EPOCH":130,"BSTAR":0,"MEAN_MOTION_DOT":-1.233e-5,"MEAN_MOTION_DDOT":0},{"OBJECT_NAME":"MMS 3","OBJECT_ID":"2015-011C","EPOCH":"2026-04-01T14:00:00.999360","MEAN_MOTION":0.28277191,"ECCENTRICITY":0.8382806,"INCLINATION":71.0618,"RA_OF_ASC_NODE":349.8633,"ARG_OF_PERICENTER":165.8407,"MEAN_ANOMALY":44.513,"EPHEMERIS_TYPE":0,"CLASSIFICATION_TYPE":"U","NORAD_CAT_ID":40484,"ELEMENT_SET_NO":999,"REV_AT_EPOCH":130,"BSTAR":0,"MEAN_MOTION_DOT":-1.233e-5,"MEAN_MOTION_DDOT":0},{"OBJECT_NAME":"MMS 4","OBJECT_ID":"2015-011D","EPOCH":"2026-04-01T14:00:00.999360","MEAN_MOTION":0.28276586,"ECCENTRICITY":0.8382509,"INCLINATION":71.0597,"RA_OF_ASC_NODE":349.8584,"ARG_OF_PERICENTER":165.8481,"MEAN_ANOMALY":44.4952,"EPHEMERIS_TYPE":0,"CLASSIFICATION_TYPE":"U","NORAD_CAT_ID":40485,"ELEMENT_SET_NO":999,"REV_AT_EPOCH":130,"BSTAR":0,"MEAN_MOTION_DOT":-1.233e-5,"MEAN_MOTION_DDOT":0},{"OBJECT_NAME":"ASTROSAT","OBJECT_ID":"2015-052A","EPOCH":"2026-04-01T06:16:37.259904","MEAN_MOTION":14.82358949,"ECCENTRICITY":0.0007826,"INCLINATION":5.9981,"RA_OF_ASC_NODE":349.0141,"ARG_OF_PERICENTER":12.0231,"MEAN_ANOMALY":348.0083,"EPHEMERIS_TYPE":0,"CLASSIFICATION_TYPE":"U","NORAD_CAT_ID":40930,"ELEMENT_SET_NO":999,"REV_AT_EPOCH":56839,"BSTAR":0.00017476,"MEAN_MOTION_DOT":2.103e-5,"MEAN_MOTION_DDOT":0},{"OBJECT_NAME":"DAMPE","OBJECT_ID":"2015-078A","EPOCH":"2026-04-01T11:40:51.142656","MEAN_MOTION":15.30582677,"ECCENTRICITY":0.0012038,"INCLINATION":97.4576,"RA_OF_ASC_NODE":96.5817,"ARG_OF_PERICENTER":357.1674,"MEAN_ANOMALY":2.9496,"EPHEMERIS_TYPE":0,"CLASSIFICATION_TYPE":"U","NORAD_CAT_ID":41173,"ELEMENT_SET_NO":999,"REV_AT_EPOCH":57281,"BSTAR":7.5819e-5,"MEAN_MOTION_DOT":2.167e-5,"MEAN_MOTION_DDOT":0},{"OBJECT_NAME":"PISAT","OBJECT_ID":"2016-059B","EPOCH":"2026-04-01T10:37:02.840736","MEAN_MOTION":14.68831246,"ECCENTRICITY":0.0030596,"INCLINATION":97.8193,"RA_OF_ASC_NODE":95.1997,"ARG_OF_PERICENTER":90.7455,"MEAN_ANOMALY":269.7257,"EPHEMERIS_TYPE":0,"CLASSIFICATION_TYPE":"U","NORAD_CAT_ID":41784,"ELEMENT_SET_NO":999,"REV_AT_EPOCH":50847,"BSTAR":0.00022379,"MEAN_MOTION_DOT":1.269e-5,"MEAN_MOTION_DDOT":0},{"OBJECT_NAME":"HXMT (HUIYAN)","OBJECT_ID":"2017-034A","EPOCH":"2026-04-01T13:12:15.638400","MEAN_MOTION":15.17751934,"ECCENTRICITY":0.003134,"INCLINATION":43.0134,"RA_OF_ASC_NODE":249.5488,"ARG_OF_PERICENTER":16.9676,"MEAN_ANOMALY":343.2214,"EPHEMERIS_TYPE":0,"CLASSIFICATION_TYPE":"U","NORAD_CAT_ID":42758,"ELEMENT_SET_NO":999,"REV_AT_EPOCH":48601,"BSTAR":0.00027148,"MEAN_MOTION_DOT":5.41e-5,"MEAN_MOTION_DDOT":0},{"OBJECT_NAME":"FLYING LAPTOP","OBJECT_ID":"2017-042G","EPOCH":"2026-04-01T12:23:57.377184","MEAN_MOTION":15.00669976,"ECCENTRICITY":0.0019905,"INCLINATION":97.4342,"RA_OF_ASC_NODE":250.1874,"ARG_OF_PERICENTER":24.8016,"MEAN_ANOMALY":335.4161,"EPHEMERIS_TYPE":0,"CLASSIFICATION_TYPE":"U","NORAD_CAT_ID":42831,"ELEMENT_SET_NO":999,"REV_AT_EPOCH":47495,"BSTAR":0.0002188,"MEAN_MOTION_DOT":2.723e-5,"MEAN_MOTION_DDOT":0},{"OBJECT_NAME":"ZHANGHENG 1-01 (CSES-1)","OBJECT_ID":"2018-015C","EPOCH":"2026-04-01T13:16:47.748288","MEAN_MOTION":15.20858614,"ECCENTRICITY":0.0018544,"INCLINATION":97.6787,"RA_OF_ASC_NODE":255.7144,"ARG_OF_PERICENTER":158.4592,"MEAN_ANOMALY":201.7427,"EPHEMERIS_TYPE":0,"CLASSIFICATION_TYPE":"U","NORAD_CAT_ID":43194,"ELEMENT_SET_NO":999,"REV_AT_EPOCH":45299,"BSTAR":0.00047434,"MEAN_MOTION_DOT":0.00010456,"MEAN_MOTION_DDOT":0},{"OBJECT_NAME":"SALSAT","OBJECT_ID":"2020-068K","EPOCH":"2026-04-01T10:57:12.566880","MEAN_MOTION":15.28628102,"ECCENTRICITY":0.0009157,"INCLINATION":97.8857,"RA_OF_ASC_NODE":89.9191,"ARG_OF_PERICENTER":201.5873,"MEAN_ANOMALY":158.498,"EPHEMERIS_TYPE":0,"CLASSIFICATION_TYPE":"U","NORAD_CAT_ID":46495,"ELEMENT_SET_NO":999,"REV_AT_EPOCH":30363,"BSTAR":0.00031519,"MEAN_MOTION_DOT":8.705e-5,"MEAN_MOTION_DDOT":0},{"OBJECT_NAME":"IXPE","OBJECT_ID":"2021-121A","EPOCH":"2026-04-01T12:00:00.998784","MEAN_MOTION":15.09513462,"ECCENTRICITY":0.0007067,"INCLINATION":0.2285,"RA_OF_ASC_NODE":177.0041,"ARG_OF_PERICENTER":2.2085,"MEAN_ANOMALY":273.9534,"EPHEMERIS_TYPE":0,"CLASSIFICATION_TYPE":"U","NORAD_CAT_ID":49954,"ELEMENT_SET_NO":999,"REV_AT_EPOCH":576,"BSTAR":0.00083544,"MEAN_MOTION_DOT":0.00014746,"MEAN_MOTION_DDOT":0}]
